ONEWEB-0456             
1 51646U 22012AA  25017.39572154  .00000676  00000+0  19004-2 0  9994
2 51646  87.8909 138.9973 0001638 113.6593 246.4707 13.10373697143087
ONEWEB-0457             
1 51647U 22012AB  25017.29609286 -.00000362  00000+0 -10725-2 0  9996
2 51647  87.8923 139.0588 0001695  90.5081 269.6240 13.10374852143089
ONEWEB-0458             
1 51648U 22012AC  25017.31770381  .00000683  00000+0  19203-2 0  9999
2 51648  87.8904 139.0584 0001476 106.5643 253.5646 13.10374366143042
ONEWEB-0461             
1 51649U 22012AD  25016.48344116  .00000114  00000+0  26025-3 0  9990
2 51649  87.9093 108.7987 0001805 102.9134 257.2199 13.17651742145841
ONEWEB-0463             
1 51650U 22012AE  25016.69269420  .00000099  00000+0  22105-3 0  9996
2 51650  87.9097 108.8133 0001712 102.1619 257.9704 13.17647129145650
ONEWEB-0464             
1 51651U 22012AF  25016.32173399  .00000724  00000+0  20385-2 0  9998
2 51651  87.8920 139.2583 0001563 119.5619 240.5664 13.10374636142932
ONEWEB-0468             
1 51652U 22012AG  25017.39737724  .00000686  00000+0  19302-2 0  9999
2 51652  87.8921 139.0376 0001578 108.5986 251.5313 13.10371430143048
ONEWEB-0473             
1 51653U 22012AH  25016.38977208  .00000481  00000+0  13404-2 0  9991
2 51653  87.8922 139.2403 0001438 107.6127 252.5157 13.10378347142922
ONEWEB-0474             
1 51654U 22012AJ  25017.29775250 -.00000116  00000+0 -36949-3 0  9993
2 51654  87.8913 139.0376 0001441 113.5849 246.5430 13.10373709143027
ONEWEB-0475             
1 51655U 22012AK  25017.31201094  .00000070  00000+0  14731-3 0  9999
2 51655  87.9099 108.6696 0000974 119.7013 240.4215 13.17652947147043
ONEWEB-0490             
1 54113U 22138A   25017.12548289 -.00000001  00000+0 -34509-4 0  9991
2 54113  87.9144  47.5556 0001770  99.1034 261.0299 13.19725082109638
ONEWEB-0492             
1 54114U 22138B   25017.15075303  .00000005  00000+0 -21058-4 0  9995
2 54114  87.9148  47.5651 0001925 101.1580 258.9769 13.19727531109640
ONEWEB-0495             
1 54115U 22138C   25017.05283205 -.00000046  00000+0 -14677-3 0  9991
2 54115  87.9148  47.5961 0001501 118.2255 241.9029 13.19722985109619
ONEWEB-0497             
1 54116U 22138D   25016.53476679  .00000658  00000+0  16122-2 0  9996
2 54116  87.9145  47.6787 0002186 104.5088 255.6287 13.19720374109535
ONEWEB-0499             
1 54117U 22138E   25017.12390321  .00000067  00000+0  13561-3 0  9991
2 54117  87.9149  47.5715 0001406  87.7482 272.3812 13.19727584109624
ONEWEB-0500             
1 54118U 22138F   25017.35451123  .00000061  00000+0  11965-3 0  9995
2 54118  87.9147  47.5151 0001880  95.3053 264.8294 13.19727419109663
ONEWEB-0501             
1 54119U 22138G   25017.15707404  .00000066  00000+0  13374-3 0  9991
2 54119  87.9144  47.5495 0001459 106.5912 253.5381 13.19727674109613
ONEWEB-0502             
1 54120U 22138H   25017.06703512  .00000052  00000+0  96328-4 0  9995
2 54120  87.9143  47.5543 0001483  98.6213 261.5088 13.19727245109628
ONEWEB-0503             
1 54121U 22138J   25016.52525394  .00000027  00000+0  35973-4 0  9997
2 54121  87.9142  47.6680 0001664  85.3830 274.7492 13.19727851109549
ONEWEB-0504             
1 54122U 22138K   25016.51263125  .00000069  00000+0  13922-3 0  9993
2 54122  87.9144  47.6814 0001433  94.6730 265.4566 13.19726909109550
ONEWEB-0505             
1 54123U 22138L   25017.11600112  .00000050  00000+0  92779-4 0  9990
2 54123  87.9144  47.5529 0001304 109.4864 250.6410 13.19727119109618
ONEWEB-0506             
1 54124U 22138M   25017.09072709  .00000030  00000+0  43462-4 0  9996
2 54124  87.9144  47.5549 0001647 100.3183 259.8136 13.19727333109608
ONEWEB-0507             
1 54125U 22138N   25017.11126071  .00000059  00000+0  11502-3 0  9992
2 54125  87.9153  47.5902 0001719 102.0253 258.1072 13.19727042109652
ONEWEB-0508             
1 54126U 22138P   25017.10810050  .00000061  00000+0  11886-3 0  9997
2 54126  87.9149  47.5780 0001703 109.1547 250.9770 13.19726960109630
ONEWEB-0509             
1 54127U 22138Q   25016.55212869  .00000992  00000+0  24464-2 0  9998
2 54127  87.9144  47.6617 0001629  98.9523 261.1794 13.19723320109538
ONEWEB-0510             
1 54128U 22138R   25016.92471577  .00000034  00000+0  51572-4 0  9992
2 54128  87.9250  17.1472 0002105  90.0346 270.1028 13.20773509111139
ONEWEB-0511             
1 54129U 22138S   25017.15548721  .00000011  00000+0 -49962-5 0  9992
2 54129  87.9142  47.5458 0001538  84.9767 275.1541 13.19728020109643
ONEWEB-0512             
1 54130U 22138T   25016.54105513  .00000008  00000+0 -12564-4 0  9997
2 54130  87.9150  47.7012 0001353 102.4293 257.6991 13.19727773109533
ONEWEB-0513             
1 54131U 22138U   25017.11836991  .00000053  00000+0  99107-4 0  9990
2 54131  87.9149  47.5752 0001231  93.7871 266.3402 13.19727191109493
ONEWEB-0514             
1 54132U 22138V   25016.55687120  .00000000  00000+0 -32908-4 0  9995
2 54132  87.9144  47.6748 0001859  92.2794 267.8552 13.19723439109559
ONEWEB-0515             
1 54133U 22138W   25016.91209134  .00000012  00000+0 -14637-5 0  9994
2 54133  87.9251  17.1272 0002792  93.2462 266.8991 13.20773530111157
ONEWEB-0516             
1 54134U 22138X   25016.53157839 -.00000189  00000+0 -50381-3 0  9997
2 54134  87.9152  47.7054 0001841 100.2403 259.8938 13.19724468109551
ONEWEB-0517             
1 54135U 22138Y   25017.11758119 -.00000011  00000+0 -61052-4 0  9993
2 54135  87.9146  47.5585 0001614  82.3962 277.7354 13.19726555109639
ONEWEB-0518             
1 54136U 22138Z   25016.52999316 -.00000109  00000+0 -30529-3 0  9996
2 54136  87.9150  47.7022 0001697  92.7761 267.3566 13.19726895109554
ONEWEB-0519             
1 54137U 22138AA  25016.55527287  .00000029  00000+0  39103-4 0  9991
2 54137  87.9144  47.6642 0001634  86.0564 274.0755 13.19727324109567
ONEWEB-0520             
1 54138U 22138AB  25017.12073854  .00000034  00000+0  53711-4 0  9999
2 54138  87.9145  47.5551 0001589 106.7964 253.3343 13.19727375109626
ONEWEB-0521             
1 54139U 22138AC  25016.54737341  .00000003  00000+0 -24264-4 0  9991
2 54139  87.9141  47.6589 0001834  85.3816 274.7527 13.19727223109528
ONEWEB-0522             
1 54140U 22138AD  25017.05757053  .00000031  00000+0  45217-4 0  9993
2 54140  87.9142  47.5589 0001806  97.7378 262.3959 13.19727766109602
ONEWEB-0523             
1 54141U 22138AE  25017.05098026 -.00000024  00000+0 -90685-4 0  9995
2 54141  87.9251  17.1290 0002655  78.7028 281.4404 13.20771624112043
ONEWEB-0524             
1 54142U 22138AF  25016.43388091  .00000036  00000+0  57120-4 0  9999
2 54142  87.9251  17.2543 0002710 101.3105 258.8333 13.20772718111961
ONEWEB-0525             
1 54143U 22138AG  25016.54579451 -.00000233  00000+0 -61556-3 0  9992
2 54143  87.9144  47.6756 0001522 102.8456 257.2847 13.19724345109557
ONEWEB-0526             
1 54144U 22138AH  25017.10968371  .00000074  00000+0  15363-3 0  9995
2 54144  87.9142  47.5544 0001776  99.2008 260.9326 13.19727306109602
ONEWEB-0529             
1 54145U 22138AJ  25016.50630807  .00000102  00000+0  22281-3 0  9998
2 54145  87.9151  47.7056 0001633 102.8901 257.2414 13.19727031109543
ONEWEB-0531             
1 54146U 22138AK  25017.02572376  .00000053  00000+0  98470-4 0  9992
2 54146  87.9251  17.1294 0002791  84.9071 275.2381 13.20773435112047
ONEWEB-0535             
1 54147U 22138AL  25017.07020043  .00000013  00000+0  10870-5 0  9992
2 54147  87.9143  47.5593 0002055  90.6180 269.5188 13.19727123109638
ONEWEB-0536             
1 54148U 22138AM  25016.93734852  .00000071  00000+0  14262-3 0  9998
2 54148  87.9250  17.1939 0002873  87.2099 272.9363 13.20772465111158
ONEWEB-0527             
1 54642U 22166A   25016.92187717  .00000037  00000+0  58704-4 0  9991
2 54642  87.9320 346.8643 0001850  86.4465 273.6881 13.21827089103339
ONEWEB-0528             
1 54643U 22166B   25016.92818192 -.00000301  00000+0 -75968-3 0  9996
2 54643  87.9323 346.8574 0001757  86.4199 273.7136 13.21825109103342
ONEWEB-0539             
1 54644U 22166C   25017.19155404  .00000056  00000+0  10509-3 0  9992
2 54644  87.9327 346.8097 0001671  78.6097 281.5225 13.21827630103822
ONEWEB-0540             
1 54645U 22166D   25017.18691893 -.00063398  00000+0 -15598+0 0  9998
2 54645  87.9324 346.8170 0001868  90.8450 269.2898 13.21232399103831
ONEWEB-0542             
1 54646U 22166E   25017.27670669 -.00000093  00000+0 -25768-3 0  9994
2 54646  87.9326 346.7915 0001733  68.8178 291.3141 13.21826241103846
ONEWEB-0545             
1 54647U 22166F   25017.39496980  .00000151  00000+0  33504-3 0  9990
2 54647  87.9284 346.7691 0000552 120.8215 239.2973 13.21833270103833
ONEWEB-0580             
1 54648U 22166G   25016.91400385  .00000039  00000+0  61767-4 0  9990
2 54648  87.9321 346.8479 0001806  69.5247 290.6081 13.21826912103801
ONEWEB-0582             
1 54649U 22166H   25017.18365338  .00000071  00000+0  13924-3 0  9996
2 54649  87.9320 346.8249 0001829  63.0344 297.0977 13.21828042103821
ONEWEB-0583             
1 54650U 22166J   25017.19471743  .00000112  00000+0  24038-3 0  9991
2 54650  87.9319 346.8194 0001719  79.1350 280.9978 13.21827813103842
ONEWEB-0584             
1 54651U 22166K   25016.45823807  .00000083  00000+0  16890-3 0  9996
2 54651  87.9320 346.9424 0001916  69.4746 290.6594 13.21828341103728
ONEWEB-0585             
1 54652U 22166L   25016.93765638  .00000039  00000+0  62765-4 0  9991
2 54652  87.9312 346.8505 0001856  84.3358 275.7987 13.21827110103326
ONEWEB-0586             
1 54653U 22166M   25016.42041785  .00000044  00000+0  75570-4 0  9990
2 54653  87.9317 346.9650 0001720  76.6479 283.4847 13.21829158103721
ONEWEB-0587             
1 54654U 22166N   25017.41351926  .00066170  00000+0  15788+0 0  9994
2 54654  87.9342 346.7154 0009868  29.0753 331.0929 13.22293207104009
